API VERSION: 1.2
API SOURCE: NASA/JPL Horizons API



*******************************************************************************
Ephemeris / API_USER Tue Apr  7 13:17:21 2026 Pasadena, USA      / Horizons    
*******************************************************************************
Target body name: Mercury (199)                   {source: DE441}
Center body name: Earth (399)                     {source: DE441}
Center-site name: (user defined site below)
*******************************************************************************
Start time      : A.D. 2026-Jan-01 00:00:00.0000 UT      
Stop  time      : A.D. 2026-Dec-31 00:00:00.0000 UT      
Step-size       : 1440 minutes
*******************************************************************************
Target pole/equ : IAU_MERCURY                     {West-longitude positive}
Target radii    : 2440.53, 2440.53, 2438.26 km    {Equator_a, b, pole_c}       
Center geodetic : 286.0, 40.7, 0.0                {E-lon(deg),Lat(deg),Alt(km)}
Center cylindric: 286.0, 4842.3819, 4137.22272    {E-lon(deg),Dxy(km),Dz(km)}
Center pole/equ : ITRF93                          {East-longitude positive}
Center radii    : 6378.137, 6378.137, 6356.752 km {Equator_a, b, pole_c}       
Target primary  : Sun
Vis. interferer : MOON (R_eq= 1737.400) km        {source: DE441}
Rel. light bend : Sun                             {source: DE441}
Rel. lght bnd GM: 1.3271E+11 km^3/s^2                                          
Atmos refraction: NO (AIRLESS)
RA format       : HMS
Time format     : CAL 
Calendar mode   : Mixed Julian/Gregorian
EOP file        : eop.260406.p260703                                           
EOP coverage    : DATA-BASED 1962-JAN-20 TO 2026-APR-06. PREDICTS-> 2026-JUL-02
Units conversion: 1 au= 149597870.700 km, c= 299792.458 km/s, 1 day= 86400.0 s 
Table cut-offs 1: Elevation (-90.0deg=NO ),Airmass (>38.000=NO), Daylight (NO )
Table cut-offs 2: Solar elongation (  0.0,180.0=NO ),Local Hour Angle( 0.0=NO )
Table cut-offs 3: RA/DEC angular rate (     0.0=NO )                           
*******************************************************************************
 Date__(UT)__HR:MN     R.A._____(ICRF)_____DEC
**********************************************
$$SOE
 2026-Jan-01 00:00  m  17 52 31.15 -23 59 44.4
 2026-Jan-02 00:00  m  17 59 12.58 -24 06 55.6
 2026-Jan-03 00:00  m  18 05 56.24 -24 12 52.5
 2026-Jan-04 00:00  m  18 12 42.00 -24 17 33.7
 2026-Jan-05 00:00  m  18 19 29.74 -24 20 57.8
 2026-Jan-06 00:00     18 26 19.34 -24 23 03.8
 2026-Jan-07 00:00     18 33 10.70 -24 23 50.2
 2026-Jan-08 00:00     18 40 03.70 -24 23 16.1
 2026-Jan-09 00:00     18 46 58.23 -24 21 20.3
 2026-Jan-10 00:00     18 53 54.19 -24 18 01.7
 2026-Jan-11 00:00     19 00 51.45 -24 13 19.5
 2026-Jan-12 00:00     19 07 49.93 -24 07 12.5
 2026-Jan-13 00:00     19 14 49.50 -23 59 40.1
 2026-Jan-14 00:00     19 21 50.06 -23 50 41.2
 2026-Jan-15 00:00     19 28 51.51 -23 40 15.0
 2026-Jan-16 00:00     19 35 53.73 -23 28 21.0
 2026-Jan-17 00:00     19 42 56.62 -23 14 58.2
 2026-Jan-18 00:00     19 50 00.07 -23 00 06.1
 2026-Jan-19 00:00     19 57 03.98 -22 43 44.0
 2026-Jan-20 00:00     20 04 08.22 -22 25 51.5
 2026-Jan-21 00:00  m  20 11 12.68 -22 06 28.1
 2026-Jan-22 00:00  m  20 18 17.24 -21 45 33.3
 2026-Jan-23 00:00  m  20 25 21.77 -21 23 06.9
 2026-Jan-24 00:00  m  20 32 26.15 -20 59 08.8
 2026-Jan-25 00:00  m  20 39 30.23 -20 33 38.7
 2026-Jan-26 00:00  m  20 46 33.86 -20 06 36.8
 2026-Jan-27 00:00  m  20 53 36.87 -19 38 03.3
 2026-Jan-28 00:00  m  21 00 39.08 -19 07 58.6
 2026-Jan-29 00:00  m  21 07 40.28 -18 36 23.4
 2026-Jan-30 00:00  m  21 14 40.25 -18 03 18.5
 2026-Jan-31 00:00  m  21 21 38.71 -17 28 45.2
 2026-Feb-01 00:00  m  21 28 35.37 -16 52 45.0
 2026-Feb-02 00:00  m  21 35 29.87 -16 15 20.1
 2026-Feb-03 00:00  m  21 42 21.82 -15 36 33.0
 2026-Feb-04 00:00     21 49 10.74 -14 56 27.0
 2026-Feb-05 00:00     21 55 56.08 -14 15 05.9
 2026-Feb-06 00:00     22 02 37.21 -13 32 34.6
 2026-Feb-07 00:00     22 09 13.39 -12 48 58.8
 2026-Feb-08 00:00     22 15 43.77 -12 04 25.5
 2026-Feb-09 00:00     22 22 07.37 -11 19 02.8
 2026-Feb-10 00:00     22 28 23.07 -10 33 00.4
 2026-Feb-11 00:00     22 34 29.60 -09 46 29.2
 2026-Feb-12 00:00     22 40 25.53 -08 59 42.1
 2026-Feb-13 00:00     22 46 09.25 -08 12 53.6
 2026-Feb-14 00:00 A   22 51 39.02 -07 26 19.9
 2026-Feb-15 00:00 A   22 56 52.91 -06 40 19.1
 2026-Feb-16 00:00 A   23 01 48.90 -05 55 11.1
 2026-Feb-17 00:00 A   23 06 24.81 -05 11 16.9
 2026-Feb-18 00:00 A   23 10 38.42 -04 28 59.3
 2026-Feb-19 00:00 Am  23 14 27.49 -03 48 41.8
 2026-Feb-20 00:00 Am  23 17 49.81 -03 10 48.5
 2026-Feb-21 00:00 Am  23 20 43.27 -02 35 43.8
 2026-Feb-22 00:00 Am  23 23 05.96 -02 03 51.5
 2026-Feb-23 00:00 Am  23 24 56.21 -01 35 34.5
 2026-Feb-24 00:00 Am  23 26 12.73 -01 11 14.4
 2026-Feb-25 00:00 Am  23 26 54.63 -00 51 10.3
 2026-Feb-26 00:00 Am  23 27 01.58 -00 35 38.5
 2026-Feb-27 00:00 Am  23 26 33.83 -00 24 51.8
 2026-Feb-28 00:00 Am  23 25 32.31 -00 18 58.5
 2026-Mar-01 00:00 Am  23 23 58.65 -00 18 01.7
 2026-Mar-02 00:00 Am  23 21 55.25 -00 21 58.8
 2026-Mar-03 00:00 Am  23 19 25.23 -00 30 41.0
 2026-Mar-04 00:00 Am  23 16 32.35 -00 43 53.0
 2026-Mar-05 00:00 A   23 13 21.01 -01 01 12.9
 2026-Mar-06 00:00 A   23 09 55.99 -01 22 13.2
 2026-Mar-07 00:00 A   23 06 22.37 -01 46 21.0
 2026-Mar-08 00:00 A   23 02 45.32 -02 13 00.1
 2026-Mar-09 00:00 A   22 59 09.86 -02 41 31.8
 2026-Mar-10 00:00 A   22 55 40.75 -03 11 17.0
 2026-Mar-11 00:00 A   22 52 22.27 -03 41 37.6
 2026-Mar-12 00:00 A   22 49 18.18 -04 11 57.6
 2026-Mar-13 00:00 A   22 46 31.57 -04 41 44.9
 2026-Mar-14 00:00 A   22 44 04.90 -05 10 31.0
 2026-Mar-15 00:00 N   22 41 59.98 -05 37 52.4
 2026-Mar-16 00:00 N   22 40 18.03 -06 03 29.8
 2026-Mar-17 00:00 N   22 38 59.73 -06 27 08.0
 2026-Mar-18 00:00 N   22 38 05.30 -06 48 36.2
 2026-Mar-19 00:00 N   22 37 34.58 -07 07 46.4
 2026-Mar-20 00:00 Nm  22 37 27.10 -07 24 34.0
 2026-Mar-21 00:00 Nm  22 37 42.18 -07 38 56.4
 2026-Mar-22 00:00 Nm  22 38 18.96 -07 50 52.9
 2026-Mar-23 00:00 Nm  22 39 16.46 -08 00 24.4
 2026-Mar-24 00:00 Nm  22 40 33.65 -08 07 32.7
 2026-Mar-25 00:00 Nm  22 42 09.45 -08 12 20.6
 2026-Mar-26 00:00 Nm  22 44 02.79 -08 14 51.3
 2026-Mar-27 00:00 Nm  22 46 12.60 -08 15 08.2
 2026-Mar-28 00:00 Nm  22 48 37.88 -08 13 15.2
 2026-Mar-29 00:00 Nm  22 51 17.62 -08 09 16.1
 2026-Mar-30 00:00 Nm  22 54 10.91 -08 03 14.8
 2026-Mar-31 00:00 Nm  22 57 16.87 -07 55 15.1
 2026-Apr-01 00:00 Nm  23 00 34.68 -07 45 20.8
 2026-Apr-02 00:00 Nm  23 04 03.58 -07 33 35.4
 2026-Apr-03 00:00 N   23 07 42.88 -07 20 02.6
 2026-Apr-04 00:00 N   23 11 31.93 -07 04 45.7
 2026-Apr-05 00:00 N   23 15 30.15 -06 47 47.8
 2026-Apr-06 00:00 N   23 19 37.01 -06 29 12.2
 2026-Apr-07 00:00 N   23 23 52.02 -06 09 01.7
 2026-Apr-08 00:00 N   23 28 14.76 -05 47 19.2
 2026-Apr-09 00:00 N   23 32 44.85 -05 24 07.4
 2026-Apr-10 00:00 N   23 37 21.95 -04 59 28.8
 2026-Apr-11 00:00 N   23 42 05.76 -04 33 26.0
 2026-Apr-12 00:00 N   23 46 56.03 -04 06 01.3
 2026-Apr-13 00:00 C   23 51 52.55 -03 37 17.0
 2026-Apr-14 00:00 C   23 56 55.13 -03 07 15.4
 2026-Apr-15 00:00 C   00 02 03.64 -02 35 58.5
 2026-Apr-16 00:00 C   00 07 17.96 -02 03 28.5
 2026-Apr-17 00:00 C   00 12 38.01 -01 29 47.5
 2026-Apr-18 00:00 Cm  00 18 03.76 -00 54 57.5
 2026-Apr-19 00:00 Cm  00 23 35.18 -00 19 00.6
 2026-Apr-20 00:00 Cm  00 29 12.30 +00 18 01.4
 2026-Apr-21 00:00 Cm  00 34 55.14 +00 56 06.3
 2026-Apr-22 00:00 Cm  00 40 43.79 +01 35 12.1
 2026-Apr-23 00:00 Cm  00 46 38.34 +02 15 16.7
 2026-Apr-24 00:00 Cm  00 52 38.92 +02 56 17.9
 2026-Apr-25 00:00 Cm  00 58 45.67 +03 38 13.4
 2026-Apr-26 00:00 Cm  01 04 58.76 +04 21 00.9
 2026-Apr-27 00:00 Cm  01 11 18.39 +05 04 37.7
 2026-Apr-28 00:00 Cm  01 17 44.75 +05 49 01.1
 2026-Apr-29 00:00 Cm  01 24 18.09 +06 34 08.0
 2026-Apr-30 00:00 Cm  01 30 58.63 +07 19 55.1
 2026-May-01 00:00 Cm  01 37 46.63 +08 06 18.8
 2026-May-02 00:00 C   01 44 42.33 +08 53 14.8
 2026-May-03 00:00 C   01 51 45.98 +09 40 38.8
 2026-May-04 00:00 C   01 58 57.82 +10 28 25.6
 2026-May-05 00:00 C   02 06 18.07 +11 16 29.6
 2026-May-06 00:00 C   02 13 46.91 +12 04 44.4
 2026-May-07 00:00 C   02 21 24.51 +12 53 03.0
 2026-May-08 00:00 C   02 29 10.95 +13 41 17.7
 2026-May-09 00:00 C   02 37 06.26 +14 29 19.8
 2026-May-10 00:00 *   02 45 10.39 +15 16 59.9
 2026-May-11 00:00 *   02 53 23.17 +16 04 07.9
 2026-May-12 00:00 *   03 01 44.33 +16 50 32.8
 2026-May-13 00:00 *   03 10 13.46 +17 36 03.0
 2026-May-14 00:00 *   03 18 50.01 +18 20 26.5
 2026-May-15 00:00 *   03 27 33.30 +19 03 31.0
 2026-May-16 00:00 *   03 36 22.48 +19 45 04.0
 2026-May-17 00:00 *m  03 45 16.57 +20 24 53.4
 2026-May-18 00:00 *m  03 54 14.45 +21 02 47.8
 2026-May-19 00:00 *m  04 03 14.92 +21 38 36.2
 2026-May-20 00:00 *m  04 12 16.67 +22 12 09.2
 2026-May-21 00:00 *m  04 21 18.36 +22 43 18.4
 2026-May-22 00:00 *m  04 30 18.62 +23 11 57.3
 2026-May-23 00:00 *m  04 39 16.09 +23 38 00.8
 2026-May-24 00:00 *m  04 48 09.45 +24 01 25.6
 2026-May-25 00:00 *m  04 56 57.46 +24 22 10.0
 2026-May-26 00:00 *m  05 05 38.92 +24 40 14.0
 2026-May-27 00:00 *m  05 14 12.77 +24 55 38.9
 2026-May-28 00:00 *m  05 22 38.01 +25 08 27.3
 2026-May-29 00:00 *m  05 30 53.77 +25 18 42.8
 2026-May-30 00:00 *m  05 38 59.25 +25 26 30.1
 2026-May-31 00:00 *   05 46 53.77 +25 31 54.4
 2026-Jun-01 00:00 *   05 54 36.71 +25 35 01.7
 2026-Jun-02 00:00 *   06 02 07.56 +25 35 58.1
 2026-Jun-03 00:00 *   06 09 25.84 +25 34 50.3
 2026-Jun-04 00:00 *   06 16 31.16 +25 31 44.9
 2026-Jun-05 00:00 *   06 23 23.15 +25 26 49.0
 2026-Jun-06 00:00 *   06 30 01.49 +25 20 09.3
 2026-Jun-07 00:00 *   06 36 25.90 +25 11 52.9
 2026-Jun-08 00:00 *   06 42 36.12 +25 02 06.5
 2026-Jun-09 00:00 *   06 48 31.89 +24 50 57.1
 2026-Jun-10 00:00 *   06 54 12.97 +24 38 31.2
 2026-Jun-11 00:00 *   06 59 39.13 +24 24 55.6
 2026-Jun-12 00:00 *   07 04 50.14 +24 10 16.9
 2026-Jun-13 00:00 *   07 09 45.74 +23 54 41.4
